#aV2020  8  6  0  0  0.00000000     288 DD+AD WGS84 FIT  NGA
## 2117 345600.00000000   300.00000000 59067 0.0000000000000
+   31     1  2  3  4  5  6  7  8  9 10 11 12 13 15 16 17 18
+         19 20 21 22 23 24 25 26 27 28 29 30 31 32  0  0  0
+          0  0  0  0  0  0  0  0  0  0  0  0  0  0  0  0  0
+          0  0  0  0  0  0  0  0  0  0  0  0  0  0  0  0  0
+          0  0  0  0  0  0  0  0  0  0  0  0  0  0  0  0  0
++         2  2  2  2  2  2  2  2  2  2  2  2  2  2  2  2  2
++         2  2  2  2  2  2  2  2  2  2  2  2  2  2  0  0  0
++         0  0  0  0  0  0  0  0  0  0  0  0  0  0  0  0  0
++         0  0  0  0  0  0  0  0  0  0  0  0  0  0  0  0  0
++         0  0  0  0  0  0  0  0  0  0  0  0  0  0  0  0  0
%c cc cc ccc ccc cccc cccc cccc cccc ccccc ccccc ccccc ccccc
%c cc cc ccc ccc cccc cccc cccc cccc ccccc ccccc ccccc ccccc
%f  0.0000000  0.000000000  0.00000000000  0.000000000000000
%f  0.0000000  0.000000000  0.00000000000  0.000000000000000
%i    0    0    0    0      0      0      0      0         0
%i    0    0    0    0      0      0      0      0         0
/*      NGA, ST. LOUIS,MO.                                  
/*   EPHEMERIS COMPUTED FROM 2 DAYS OF DATA                 
/*   EPOCHA v5 SMOOTHER                                     
/*   G1762 IERS2010 SATAF SATAPC                            
*  2020  8  6 14 45  0.00000000
P  1  18622.591225   9365.729667  16418.772898     32.018205                    
V  1   9895.633436  18702.571854 -21262.280941      0.028225                    
P  2 -13769.902585 -22611.094857   3019.703251   -498.284994                    
V  2   4023.455615    856.466202  31403.302439     -0.055274                    
P  3  16967.838621  -2136.950421  20221.528910   -262.133966                    
V  3 -11262.155524  23292.091687  11968.495734     -0.111958                    
P  4  26563.850157    512.880979    769.732567   -121.376295                    
V  4   -961.014920   2811.713684  31698.081609     -0.044317                    
P  5  -6370.944208 -17533.581146 -18979.319546    -18.240185                    
V  5  11953.692998 -20732.596627  15450.225378     -0.008269                    
P  6  -3384.714671 -22599.450605  13551.361645   -312.442846                    
V  6  10534.782976  13589.724378  25424.786933     -0.044598                    
P  7  12519.241986  -8723.514504 -21404.184986   -344.183294                    
V  7  14838.530706  23739.358120  -1464.072221     -0.085250                    
P  8  23042.600240   6818.515170 -11585.560435    -43.550677                    
V  8 -14504.311179   2694.450538 -26984.296601     -0.013130                    
P  9  23004.955782  -8465.115020 -10297.706170   -266.030378                    
V  9  13126.213908   2030.571102  27776.536979     -0.061626                    
P 10 -11212.169024  23863.506142   1862.098084   -420.335487                    
V 10  -3568.150518    679.765814 -31929.383037     -0.103813                    
P 11  23519.437322  11400.161150   3068.621116   -200.233433                    
V 11   1510.321377   6294.243341 -30541.163305      0.106123                    
P 12 -16562.765306    395.677323  20489.356745     84.073165                    
V 12  13345.489962 -22959.502599  11250.111656     -0.049384                    
P 13 -16058.816344 -13121.195186 -16774.553397     33.379080                    
V 13  21068.011357    414.453315 -20539.859479      0.034131                    
P 15 -23967.841024  -4977.373126 -11085.408501   -212.447273                    
V 15  12989.346584  -4781.465651 -26350.080727      0.025871                    
P 16   6839.456627  15161.764357 -20816.992859   -192.233146                    
V 16 -15035.646121  21237.444387  11070.874103     -0.048608                    
P 17   8655.681954 -13955.749235  21289.867557    307.066646                    
V 17  25980.145029   1221.858498 -10004.295675      0.055409                    
P 18 -11935.133724   9479.177432 -21763.802815    263.884464                    
V 18 -14219.147407 -23647.877441  -2538.845816      0.085169                    
P 19    362.587454 -14618.140078  21876.319404   -122.043184                    
V 19  28369.929735   1948.868851    769.323908      0.050775                    
P 20 -15209.775151  19033.249700 -10365.715493    527.113710                    
V 20   1448.046473 -13519.113800 -27386.068893     -0.001021                    
P 21   7400.187909  23048.107960 -10552.089274     32.534433                    
V 21 -10554.369247 -10155.774318 -27344.928037      0.044309                    
P 22  14676.073213   6216.305755  21450.884840   -766.379407                    
V 22 -10449.911791  24763.930158    120.998496      0.031088                    
P 23 -15935.327732  19842.695091  -7621.241341     30.895779                    
V 23   1990.818219  -9789.143043 -29767.041746      0.127331                    
P 24 -20095.947275 -10541.807412  13893.183445    -16.757121                    
V 24  -8321.241109 -16051.454622 -23496.778879     -0.005383                    
P 25 -18107.180397  11941.929750  14914.641817     32.080918                    
V 25   7239.628144 -18188.187371  23241.624611      0.046608                    
P 26  -2533.711423  23787.829948 -11324.654727    256.613214                    
V 26  -9003.805453  11675.344338  26839.926861      0.066768                    
P 27  13921.426442  12439.979981 -19167.670654   -364.519060                    
V 27 -23822.876352   1748.186441 -15966.518326     -0.093738                    
P 28  11998.578586 -23486.324804   4333.676621    692.250064                    
V 28   4352.772423  -2812.129793 -31391.814471     -0.037946                    
P 29 -25332.556066   3819.435080  -7140.494103   -166.832294                    
V 29  -8900.568730  -2203.271679  30542.899727     -0.083961                    
P 30   4812.112147 -18498.673247 -18300.496605   -276.964360                    
V 30  13470.096539  19353.499663 -16193.728631     -0.074960                    
P 31   4028.035669  23222.132794  11735.226725    -60.439088                    
V 31 -10100.589087 -11637.850907  26843.506951     -0.024662                    
P 32  -7054.267941  14973.284880  20828.679945    328.652587                    
V 32 -26310.408752    164.589926  -9214.723927      0.056597                    
EOF
